{"fetched_at":"2026-07-05T17:36:07.652Z","source":"https://celestrak.org/NORAD/elements/gp.php?GROUP=kuiper&FORMAT=JSON","constellation":"kuiper","records":[{"OBJECT_NAME":"KUIPER-00605","OBJECT_ID":"2026-118X","EPOCH":"2026-07-05T06:00:04.999968","CLASSIFICATION_TYPE":"U","MEAN_MOTION":15.23754031,"ECCENTRICITY":0.00051028,"INCLINATION":51.8766,"RA_OF_ASC_NODE":326.4445,"ARG_OF_PERICENTER":251.0454,"MEAN_ANOMALY":132.1787,"EPHEMERIS_TYPE":0,"NORAD_CAT_ID":69288,"ELEMENT_SET_NO":999,"REV_AT_EPOCH":205,"BSTAR":-0.055515061,"MEAN_MOTION_DOT":-0.01241664,"MEAN_MOTION_DDOT":0},{"OBJECT_NAME":"KUIPER-00606","OBJECT_ID":"2026-118Y","EPOCH":"2026-07-04T19:14:21.517152","CLASSIFICATION_TYPE":"U","MEAN_MOTION":15.38155088,"ECCENTRICITY":0.00045924,"INCLINATION":51.873,"RA_OF_ASC_NODE":327.9822,"ARG_OF_PERICENTER":232.3906,"MEAN_ANOMALY":127.6664,"EPHEMERIS_TYPE":0,"NORAD_CAT_ID":69289,"ELEMENT_SET_NO":999,"REV_AT_EPOCH":669,"BSTAR":0.0019092375,"MEAN_MOTION_DOT":0.00073192,"MEAN_MOTION_DDOT":0},{"OBJECT_NAME":"KUIPER-00607","OBJECT_ID":"2026-118Z","EPOCH":"2026-07-04T19:24:13.542912","CLASSIFICATION_TYPE":"U","MEAN_MOTION":15.37796591,"ECCENTRICITY":0.00052837,"INCLINATION":51.8694,"RA_OF_ASC_NODE":328.0246,"ARG_OF_PERICENTER":232.904,"MEAN_ANOMALY":127.1465,"EPHEMERIS_TYPE":0,"NORAD_CAT_ID":69290,"ELEMENT_SET_NO":999,"REV_AT_EPOCH":669,"BSTAR":0.0008507258,"MEAN_MOTION_DOT":0.00031843,"MEAN_MOTION_DDOT":0},{"OBJECT_NAME":"KUIPER-00608","OBJECT_ID":"2026-118AA","EPOCH":"2026-07-04T19:01:29.517600","CLASSIFICATION_TYPE":"U","MEAN_MOTION":15.34127558,"ECCENTRICITY":0.00077753,"INCLINATION":51.8626,"RA_OF_ASC_NODE":328.632,"ARG_OF_PERICENTER":254.5693,"MEAN_ANOMALY":105.4433,"EPHEMERIS_TYPE":0,"NORAD_CAT_ID":69291,"ELEMENT_SET_NO":999,"REV_AT_EPOCH":668,"BSTAR":0.0015711098,"MEAN_MOTION_DOT":0.00052712,"MEAN_MOTION_DDOT":0},{"OBJECT_NAME":"KUIPER-00610","OBJECT_ID":"2026-118AB","EPOCH":"2026-07-04T15:49:08.565024","CLASSIFICATION_TYPE":"U","MEAN_MOTION":15.38649239,"ECCENTRICITY":0.000173,"INCLINATION":51.8755,"RA_OF_ASC_NODE":328.5321,"ARG_OF_PERICENTER":255.5114,"MEAN_ANOMALY":104.5681,"EPHEMERIS_TYPE":0,"NORAD_CAT_ID":69292,"ELEMENT_SET_NO":999,"REV_AT_EPOCH":667,"BSTAR":0.0013784186,"MEAN_MOTION_DOT":0.00053441,"MEAN_MOTION_DDOT":0},{"OBJECT_NAME":"KUIPER-00613","OBJECT_ID":"2026-118AC","EPOCH":"2026-07-05T06:00:04.999968","CLASSIFICATION_TYPE":"U","MEAN_MOTION":15.27480893,"ECCENTRICITY":0.00098683,"INCLINATION":51.8673,"RA_OF_ASC_NODE":326.7208,"ARG_OF_PERICENTER":247.3224,"MEAN_ANOMALY":343.1517,"EPHEMERIS_TYPE":0,"NORAD_CAT_ID":69293,"ELEMENT_SET_NO":999,"REV_AT_EPOCH":382,"BSTAR":-0.0053515671,"MEAN_MOTION_DOT":-0.00143752,"MEAN_MOTION_DDOT":0},{"OBJECT_NAME":"KUIPER-00618","OBJECT_ID":"2026-118AD","EPOCH":"2026-07-04T15:50:48.514272","CLASSIFICATION_TYPE":"U","MEAN_MOTION":15.37357695,"ECCENTRICITY":0.00009188,"INCLINATION":51.8753,"RA_OF_ASC_NODE":328.538,"ARG_OF_PERICENTER":233.7362,"MEAN_ANOMALY":126.354,"EPHEMERIS_TYPE":0,"NORAD_CAT_ID":69294,"ELEMENT_SET_NO":999,"REV_AT_EPOCH":667,"BSTAR":0.0011510291,"MEAN_MOTION_DOT":0.00042654,"MEAN_MOTION_DDOT":0},{"OBJECT_NAME":"KUIPER-00620","OBJECT_ID":"2026-118AE","EPOCH":"2026-07-04T18:55:19.071552","CLASSIFICATION_TYPE":"U","MEAN_MOTION":15.3861657,"ECCENTRICITY":0.00014218,"INCLINATION":51.8736,"RA_OF_ASC_NODE":327.8992,"ARG_OF_PERICENTER":186.088,"MEAN_ANOMALY":174.009,"EPHEMERIS_TYPE":0,"NORAD_CAT_ID":69295,"ELEMENT_SET_NO":999,"REV_AT_EPOCH":669,"BSTAR":0.0008086773,"MEAN_MOTION_DOT":0.00031062,"MEAN_MOTION_DDOT":0},{"OBJECT_NAME":"KUIPER-00423","OBJECT_ID":"2026-140A","EPOCH":"2026-07-04T17:23:25.236960","CLASSIFICATION_TYPE":"U","MEAN_MOTION":15.38400119,"ECCENTRICITY":0.00136656,"INCLINATION":51.8809,"RA_OF_ASC_NODE":313.7629,"ARG_OF_PERICENTER":229.9746,"MEAN_ANOMALY":130.0043,"EPHEMERIS_TYPE":0,"NORAD_CAT_ID":69592,"ELEMENT_SET_NO":999,"REV_AT_EPOCH":393,"BSTAR":0.0015845818,"MEAN_MOTION_DOT":0.00061233,"MEAN_MOTION_DDOT":0},{"OBJECT_NAME":"KUIPER-00428","OBJECT_ID":"2026-140B","EPOCH":"2026-07-04T00:00:02.999808","CLASSIFICATION_TYPE":"U","MEAN_MOTION":15.36707463,"ECCENTRICITY":0.00075957,"INCLINATION":51.8819,"RA_OF_ASC_NODE":317.5706,"ARG_OF_PERICENTER":353.9697,"MEAN_ANOMALY":163.828,"EPHEMERIS_TYPE":0,"NORAD_CAT_ID":69593,"ELEMENT_SET_NO":999,"REV_AT_EPOCH":375,"BSTAR":-0.000041820036,"MEAN_MOTION_DOT":-0.00001916,"MEAN_MOTION_DDOT":0},{"OBJECT_NAME":"KUIPER-00481","OBJECT_ID":"2026-140C","EPOCH":"2026-07-05T06:00:04.999968","CLASSIFICATION_TYPE":"U","MEAN_MOTION":15.37742307,"ECCENTRICITY":0.00111745,"INCLINATION":51.8788,"RA_OF_ASC_NODE":311.2957,"ARG_OF_PERICENTER":239.3633,"MEAN_ANOMALY":112.5227,"EPHEMERIS_TYPE":0,"NORAD_CAT_ID":69594,"ELEMENT_SET_NO":999,"REV_AT_EPOCH":345,"BSTAR":0.0022068297,"MEAN_MOTION_DOT":0.00083781,"MEAN_MOTION_DDOT":0},{"OBJECT_NAME":"KUIPER-00490","OBJECT_ID":"2026-140D","EPOCH":"2026-07-04T17:47:14.726688","CLASSIFICATION_TYPE":"U","MEAN_MOTION":15.37762782,"ECCENTRICITY":0.0006263,"INCLINATION":51.8782,"RA_OF_ASC_NODE":313.8621,"ARG_OF_PERICENTER":299.3763,"MEAN_ANOMALY":60.6598,"EPHEMERIS_TYPE":0,"NORAD_CAT_ID":69595,"ELEMENT_SET_NO":999,"REV_AT_EPOCH":393,"BSTAR":0.0017335262,"MEAN_MOTION_DOT":0.00065526,"MEAN_MOTION_DDOT":0},{"OBJECT_NAME":"KUIPER-00493","OBJECT_ID":"2026-140E","EPOCH":"2026-07-04T18:07:40.429056","CLASSIFICATION_TYPE":"U","MEAN_MOTION":15.36503618,"ECCENTRICITY":0.00072274,"INCLINATION":51.8833,"RA_OF_ASC_NODE":313.9597,"ARG_OF_PERICENTER":359.4727,"MEAN_ANOMALY":0.6251,"EPHEMERIS_TYPE":0,"NORAD_CAT_ID":69596,"ELEMENT_SET_NO":999,"REV_AT_EPOCH":393,"BSTAR":0.0019600243,"MEAN_MOTION_DOT":0.00071236,"MEAN_MOTION_DDOT":0},{"OBJECT_NAME":"KUIPER-00496","OBJECT_ID":"2026-140F","EPOCH":"2026-07-04T18:20:59.488224","CLASSIFICATION_TYPE":"U","MEAN_MOTION":15.34614214,"ECCENTRICITY":0.00100633,"INCLINATION":51.8797,"RA_OF_ASC_NODE":314.014,"ARG_OF_PERICENTER":18.3048,"MEAN_ANOMALY":341.8298,"EPHEMERIS_TYPE":0,"NORAD_CAT_ID":69597,"ELEMENT_SET_NO":999,"REV_AT_EPOCH":393,"BSTAR":-0.00033805536,"MEAN_MOTION_DOT":-0.00011897,"MEAN_MOTION_DDOT":0},{"OBJECT_NAME":"KUIPER-00513","OBJECT_ID":"2026-140G","EPOCH":"2026-07-04T17:44:28.670208","CLASSIFICATION_TYPE":"U","MEAN_MOTION":15.37953756,"ECCENTRICITY":0.00068604,"INCLINATION":51.8815,"RA_OF_ASC_NODE":313.8573,"ARG_OF_PERICENTER":298.3893,"MEAN_ANOMALY":61.6402,"EPHEMERIS_TYPE":0,"NORAD_CAT_ID":69598,"ELEMENT_SET_NO":999,"REV_AT_EPOCH":393,"BSTAR":0.0015311568,"MEAN_MOTION_DOT":0.00058142,"MEAN_MOTION_DDOT":0},{"OBJECT_NAME":"KUIPER-00516","OBJECT_ID":"2026-140H","EPOCH":"2026-07-04T17:50:56.424768","CLASSIFICATION_TYPE":"U","MEAN_MOTION":15.3741507,"ECCENTRICITY":0.00067019,"INCLINATION":51.8819,"RA_OF_ASC_NODE":313.8792,"ARG_OF_PERICENTER":310.3423,"MEAN_ANOMALY":49.6978,"EPHEMERIS_TYPE":0,"NORAD_CAT_ID":69599,"ELEMENT_SET_NO":999,"REV_AT_EPOCH":393,"BSTAR":0.0018655684,"MEAN_MOTION_DOT":0.00069798,"MEAN_MOTION_DDOT":0}]}
